EUTELSAT 21B            
1 38992U 12062B   25365.25517565  .00000147  00000+0  00000+0 0  9999
2 38992   0.0648   3.5334 0003213 284.1771 285.6818  1.00273872 48143
EUTELSAT 70B            
1 39020U 12069A   25365.19355527 -.00000026  00000+0  00000+0 0  9997
2 39020   0.0604   1.9946 0003946 258.7032 339.3372  1.00271310 47820
EUTELSAT 117 WEST A     
1 39122U 13012A   25365.27626965  .00000004  00000+0  00000+0 0  9990
2 39122   0.0104   9.2516 0003121 275.0757 158.2708  1.00271124 46758
EUTELSAT 7B             
1 39163U 13022A   25365.02197302  .00000066  00000+0  00000+0 0  9995
2 39163   0.0674 345.0907 0004899 335.5705 153.9578  1.00272863 46262
EXPRESS-AT1             
1 39612U 14010A   25365.17405959  .00000096  00000+0  00000+0 0  9991
2 39612   0.0155 332.8910 0000364 240.5228   5.0927  1.00268913 43130
EXPRESS-AT2             
1 39613U 14010B   25365.42131671 -.00000265  00000+0  00000+0 0  9996
2 39613   0.0160 302.8722 0001848 327.3525 121.3903  1.00271270 42817
EUTELSAT 3B             
1 39773U 14030A   25365.25153563  .00000036  00000+0  00000+0 0  9995
2 39773   0.0603   4.7507 0004320 235.9168 312.8909  1.00270998 42381
EUTELSAT 115 WEST B     
1 40425U 15010B   25365.01421140 -.00000008  00000+0  00000+0 0  9993
2 40425   0.0106 157.9272 0000338 291.1804 260.7941  1.00272275 39700
